IRIDIUM 159             
1 43578U 18061K   24307.91803672 -.00000113  00000+0 -47485-4 0  9993
2 43578  86.3921 303.7979 0001980  88.8671 271.2752 14.34217273328634
IRIDIUM 176             
1 43923U 19002B   24307.36417308  .00004350  00000+0  68542-3 0  9990
2 43923  86.6110 240.8771 0002151  93.7889 266.3574 14.72268412312171
IRIDIUM 168             
1 43924U 19002C   24307.77164607  .00001092  00000+0  38291-3 0  9995
2 43924  86.3980 240.7571 0002153  83.4426 276.7015 14.34224556304205
IRIDIUM 173             
1 43925U 19002D   24307.89848843  .00000047  00000+0  96281-5 0  9994
2 43925  86.3982 240.6180 0002056  82.4944 277.6485 14.34216293304209
IRIDIUM 169             
1 43926U 19002E   24307.33263235  .00001729  00000+0  55848-3 0  9990
2 43926  86.4181 272.4892 0003663 105.6778 254.4824 14.38616117305139
IRIDIUM 172             
1 43927U 19002F   24307.89216978  .00000335  00000+0  11267-3 0  9993
2 43927  86.3979 240.6272 0002078  82.0909 278.0523 14.34208957304217
